[{"OBJECT_NAME":"EUTELSAT 70B","OBJECT_ID":"2012-069A","EPOCH":"2023-01-02T21:05:42.569952","MEAN_MOTION":1.00270591,"ECCENTRICITY":0.0005911,"INCLINATION":0.0675,"RA_OF_ASC_NODE":340.7932,"ARG_OF_PERICENTER":269.6423,"MEAN_ANOMALY":238.7311,"EPHEMERIS_TYPE":0,"CLASSIFICATION_TYPE":"U","NORAD_CAT_ID":39020,"ELEMENT_SET_NO":999,"REV_AT_EPOCH":3686,"BSTAR":0,"MEAN_MOTION_DOT":-3.2e-7,"MEAN_MOTION_DDOT":0},{"OBJECT_NAME":"YAMAL 402","OBJECT_ID":"2012-070A","EPOCH":"2023-01-02T03:52:42.632256","MEAN_MOTION":1.00273155,"ECCENTRICITY":0.0003876,"INCLINATION":0.0293,"RA_OF_ASC_NODE":77.8547,"ARG_OF_PERICENTER":197.6491,"MEAN_ANOMALY":299.1115,"EPHEMERIS_TYPE":0,"CLASSIFICATION_TYPE":"U","NORAD_CAT_ID":39022,"ELEMENT_SET_NO":999,"REV_AT_EPOCH":3694,"BSTAR":0,"MEAN_MOTION_DOT":9.6e-7,"MEAN_MOTION_DDOT":0},{"OBJECT_NAME":"GOKTURK 2","OBJECT_ID":"2012-073A","EPOCH":"2023-01-02T21:21:03.841920","MEAN_MOTION":14.72920964,"ECCENTRICITY":0.0002155,"INCLINATION":97.826,"RA_OF_ASC_NODE":240.0416,"ARG_OF_PERICENTER":88.2042,"MEAN_ANOMALY":271.9425,"EPHEMERIS_TYPE":0,"CLASSIFICATION_TYPE":"U","NORAD_CAT_ID":39030,"ELEMENT_SET_NO":999,"REV_AT_EPOCH":53871,"BSTAR":9.5222e-5,"MEAN_MOTION_DOT":5.63e-6,"MEAN_MOTION_DDOT":0},{"OBJECT_NAME":"SKYNET 5D","OBJECT_ID":"2012-075A","EPOCH":"2023-01-02T21:16:10.786080","MEAN_MOTION":1.00269859,"ECCENTRICITY":0.0004153,"INCLINATION":0.0694,"RA_OF_ASC_NODE":5.6152,"ARG_OF_PERICENTER":272.7454,"MEAN_ANOMALY":195.6561,"EPHEMERIS_TYPE":0,"CLASSIFICATION_TYPE":"U","NORAD_CAT_ID":39034,"ELEMENT_SET_NO":999,"REV_AT_EPOCH":3651,"BSTAR":0,"MEAN_MOTION_DOT":1.11e-6,"MEAN_MOTION_DDOT":0},{"OBJECT_NAME":"MEXSAT 3","OBJECT_ID":"2012-075B","EPOCH":"2023-01-02T15:18:17.830368","MEAN_MOTION":1.00271765,"ECCENTRICITY":0.0002535,"INCLINATION":0.0096,"RA_OF_ASC_NODE":10.4402,"ARG_OF_PERICENTER":258.1946,"MEAN_ANOMALY":308.1221,"EPHEMERIS_TYPE":0,"CLASSIFICATION_TYPE":"U","NORAD_CAT_ID":39035,"ELEMENT_SET_NO":999,"REV_AT_EPOCH":3653,"BSTAR":0,"MEAN_MOTION_DOT":-1.4e-7,"MEAN_MOTION_DDOT":0},{"OBJECT_NAME":"COSMOS 2482","OBJECT_ID":"2013-001A","EPOCH":"2023-01-02T19:26:18.270816","MEAN_MOTION":12.42931409,"ECCENTRICITY":0.0026634,"INCLINATION":82.4997,"RA_OF_ASC_NODE":285.0701,"ARG_OF_PERICENTER":257.3573,"MEAN_ANOMALY":102.4538,"EPHEMERIS_TYPE":0,"CLASSIFICATION_TYPE":"U","NORAD_CAT_ID":39057,"ELEMENT_SET_NO":999,"REV_AT_EPOCH":45208,"BSTAR":0.00028167,"MEAN_MOTION_DOT":4.9e-7,"MEAN_MOTION_DDOT":0},{"OBJECT_NAME":"COSMOS 2483","OBJECT_ID":"2013-001B","EPOCH":"2023-01-02T19:25:56.988768","MEAN_MOTION":12.43974326,"ECCENTRICITY":0.0015677,"INCLINATION":82.501,"RA_OF_ASC_NODE":281.0165,"ARG_OF_PERICENTER":251.1455,"MEAN_ANOMALY":108.7926,"EPHEMERIS_TYPE":0,"CLASSIFICATION_TYPE":"U","NORAD_CAT_ID":39058,"ELEMENT_SET_NO":999,"REV_AT_EPOCH":45245,"BSTAR":0.0003163,"MEAN_MOTION_DOT":5.4e-7,"MEAN_MOTION_DDOT":0},{"OBJECT_NAME":"COSMOS 2484","OBJECT_ID":"2013-001C","EPOCH":"2023-01-02T16:41:14.489376","MEAN_MOTION":12.4287057,"ECCENTRICITY":0.0025497,"INCLINATION":82.5036,"RA_OF_ASC_NODE":286.2298,"ARG_OF_PERICENTER":266.7406,"MEAN_ANOMALY":93.0756,"EPHEMERIS_TYPE":0,"CLASSIFICATION_TYPE":"U","NORAD_CAT_ID":39059,"ELEMENT_SET_NO":999,"REV_AT_EPOCH":45205,"BSTAR":0.00033261,"MEAN_MOTION_DOT":5.6e-7,"MEAN_MOTION_DDOT":0},{"OBJECT_NAME":"TDRS 11","OBJECT_ID":"2013-004A","EPOCH":"2023-01-02T19:53:18.003840","MEAN_MOTION":1.00264456,"ECCENTRICITY":0.0003147,"INCLINATION":2.7816,"RA_OF_ASC_NODE":352.2682,"ARG_OF_PERICENTER":47.0059,"MEAN_ANOMALY":187.0486,"EPHEMERIS_TYPE":0,"CLASSIFICATION_TYPE":"U","NORAD_CAT_ID":39070,"ELEMENT_SET_NO":999,"REV_AT_EPOCH":3404,"BSTAR":0,"MEAN_MOTION_DOT":9.2e-7,"MEAN_MOTION_DDOT":0},{"OBJECT_NAME":"GLOBALSTAR M097","OBJECT_ID":"2013-005A","EPOCH":"2023-01-02T18:15:52.063200","MEAN_MOTION":12.6228114,"ECCENTRICITY":0.0001283,"INCLINATION":52.004,"RA_OF_ASC_NODE":123.2467,"ARG_OF_PERICENTER":108.5407,"MEAN_ANOMALY":251.56,"EPHEMERIS_TYPE":0,"CLASSIFICATION_TYPE":"U","NORAD_CAT_ID":39072,"ELEMENT_SET_NO":999,"REV_AT_EPOCH":45760,"BSTAR":-0.00010098,"MEAN_MOTION_DOT":-1.22e-6,"MEAN_MOTION_DDOT":0},{"OBJECT_NAME":"GLOBALSTAR M093","OBJECT_ID":"2013-005B","EPOCH":"2023-01-02T17:37:53.496480","MEAN_MOTION":12.62267209,"ECCENTRICITY":0.0001371,"INCLINATION":51.9807,"RA_OF_ASC_NODE":118.0665,"ARG_OF_PERICENTER":105.9154,"MEAN_ANOMALY":254.1863,"EPHEMERIS_TYPE":0,"CLASSIFICATION_TYPE":"U","NORAD_CAT_ID":39073,"ELEMENT_SET_NO":999,"REV_AT_EPOCH":45755,"BSTAR":-3.0668e-5,"MEAN_MOTION_DOT":-1.09e-6,"MEAN_MOTION_DDOT":0},{"OBJECT_NAME":"GLOBALSTAR M094","OBJECT_ID":"2013-005C","EPOCH":"2023-01-02T19:32:02.130720","MEAN_MOTION":12.62266571,"ECCENTRICITY":4.92e-5,"INCLINATION":51.9974,"RA_OF_ASC_NODE":31.3129,"ARG_OF_PERICENTER":121.6973,"MEAN_ANOMALY":238.3942,"EPHEMERIS_TYPE":0,"CLASSIFICATION_TYPE":"U","NORAD_CAT_ID":39074,"ELEMENT_SET_NO":999,"REV_AT_EPOCH":45917,"BSTAR":5.6563e-5,"MEAN_MOTION_DOT":-9.4e-7,"MEAN_MOTION_DDOT":0},{"OBJECT_NAME":"GLOBALSTAR M096","OBJECT_ID":"2013-005D","EPOCH":"2023-01-02T21:45:05.016384","MEAN_MOTION":12.62268826,"ECCENTRICITY":9.66e-5,"INCLINATION":52.0083,"RA_OF_ASC_NODE":78.845,"ARG_OF_PERICENTER":119.2679,"MEAN_ANOMALY":240.8284,"EPHEMERIS_TYPE":0,"CLASSIFICATION_TYPE":"U","NORAD_CAT_ID":39075,"ELEMENT_SET_NO":999,"REV_AT_EPOCH":45810,"BSTAR":-4.1224e-5,"MEAN_MOTION_DOT":-1.11e-6,"MEAN_MOTION_DDOT":0},{"OBJECT_NAME":"GLOBALSTAR M078","OBJECT_ID":"2013-005E","EPOCH":"2023-01-02T21:06:41.575968","MEAN_MOTION":12.62276853,"ECCENTRICITY":0.0001176,"INCLINATION":51.9852,"RA_OF_ASC_NODE":164.6529,"ARG_OF_PERICENTER":53.2982,"MEAN_ANOMALY":306.7992,"EPHEMERIS_TYPE":0,"CLASSIFICATION_TYPE":"U","NORAD_CAT_ID":39076,"ELEMENT_SET_NO":999,"REV_AT_EPOCH":45672,"BSTAR":8.8886e-5,"MEAN_MOTION_DOT":-8.8e-7,"MEAN_MOTION_DDOT":0},{"OBJECT_NAME":"GLOBALSTAR M095","OBJECT_ID":"2013-005F","EPOCH":"2023-01-02T21:44:48.480288","MEAN_MOTION":12.62262428,"ECCENTRICITY":0.0001495,"INCLINATION":51.9777,"RA_OF_ASC_NODE":162.2146,"ARG_OF_PERICENTER":77.8368,"MEAN_ANOMALY":282.2666,"EPHEMERIS_TYPE":0,"CLASSIFICATION_TYPE":"U","NORAD_CAT_ID":39077,"ELEMENT_SET_NO":999,"REV_AT_EPOCH":45658,"BSTAR":5.7875e-5,"MEAN_MOTION_DOT":-9.3e-7,"MEAN_MOTION_DDOT":0},{"OBJECT_NAME":"AMAZONAS 3","OBJECT_ID":"2013-006A","EPOCH":"2023-01-02T20:43:32.712384","MEAN_MOTION":1.0027241,"ECCENTRICITY":0.0004172,"INCLINATION":0.0509,"RA_OF_ASC_NODE":226.6348,"ARG_OF_PERICENTER":22.2064,"MEAN_ANOMALY":103.2827,"EPHEMERIS_TYPE":0,"CLASSIFICATION_TYPE":"U","NORAD_CAT_ID":39078,"ELEMENT_SET_NO":999,"REV_AT_EPOCH":3225,"BSTAR":0,"MEAN_MOTION_DOT":-2.7e-6,"MEAN_MOTION_DDOT":0},{"OBJECT_NAME":"AZERSPACE 1","OBJECT_ID":"2013-006B","EPOCH":"2023-01-02T20:16:42.712320","MEAN_MOTION":1.00269657,"ECCENTRICITY":0.0002519,"INCLINATION":0.0255,"RA_OF_ASC_NODE":14.7521,"ARG_OF_PERICENTER":289.0117,"MEAN_ANOMALY":148.6084,"EPHEMERIS_TYPE":0,"CLASSIFICATION_TYPE":"U","NORAD_CAT_ID":39079,"ELEMENT_SET_NO":999,"REV_AT_EPOCH":3616,"BSTAR":0,"MEAN_MOTION_DOT":1.45e-6,"MEAN_MOTION_DDOT":0},{"OBJECT_NAME":"LANDSAT 8","OBJECT_ID":"2013-008A","EPOCH":"2023-01-02T21:49:58.197504","MEAN_MOTION":14.57112931,"ECCENTRICITY":0.0001299,"INCLINATION":98.2021,"RA_OF_ASC_NODE":75.4584,"ARG_OF_PERICENTER":87.3062,"MEAN_ANOMALY":272.8285,"EPHEMERIS_TYPE":0,"CLASSIFICATION_TYPE":"U","NORAD_CAT_ID":39084,"ELEMENT_SET_NO":999,"REV_AT_EPOCH":51422,"BSTAR":9.6346e-5,"MEAN_MOTION_DOT":3.89e-6,"MEAN_MOTION_DDOT":0},{"OBJECT_NAME":"SARAL","OBJECT_ID":"2013-009A","EPOCH":"2023-01-02T20:51:00.628992","MEAN_MOTION":14.32060505,"ECCENTRICITY":0.0001909,"INCLINATION":98.5447,"RA_OF_ASC_NODE":190.5767,"ARG_OF_PERICENTER":69.1426,"MEAN_ANOMALY":290.9961,"EPHEMERIS_TYPE":0,"CLASSIFICATION_TYPE":"U","NORAD_CAT_ID":39086,"ELEMENT_SET_NO":999,"REV_AT_EPOCH":51502,"BSTAR":6.0568e-5,"MEAN_MOTION_DOT":1.19e-6,"MEAN_MOTION_DDOT":0},{"OBJECT_NAME":"SAPPHIRE","OBJECT_ID":"2013-009C","EPOCH":"2023-01-02T18:55:29.881920","MEAN_MOTION":14.34357439,"ECCENTRICITY":0.0012206,"INCLINATION":98.4154,"RA_OF_ASC_NODE":198.4885,"ARG_OF_PERICENTER":48.2401,"MEAN_ANOMALY":311.9826,"EPHEMERIS_TYPE":0,"CLASSIFICATION_TYPE":"U","NORAD_CAT_ID":39088,"ELEMENT_SET_NO":999,"REV_AT_EPOCH":51569,"BSTAR":6.6535e-5,"MEAN_MOTION_DOT":1.45e-6,"MEAN_MOTION_DDOT":0},{"OBJECT_NAME":"NEOSSAT","OBJECT_ID":"2013-009D","EPOCH":"2023-01-02T12:00:03.954528","MEAN_MOTION":14.34743344,"ECCENTRICITY":0.0012122,"INCLINATION":98.4108,"RA_OF_ASC_NODE":198.7594,"ARG_OF_PERICENTER":49.2294,"MEAN_ANOMALY":310.9942,"EPHEMERIS_TYPE":0,"CLASSIFICATION_TYPE":"U","NORAD_CAT_ID":39089,"ELEMENT_SET_NO":999,"REV_AT_EPOCH":51575,"BSTAR":9.4666e-5,"MEAN_MOTION_DOT":2.26e-6,"MEAN_MOTION_DDOT":0},{"OBJECT_NAME":"STRAND-1","OBJECT_ID":"2013-009E","EPOCH":"2023-01-02T12:44:31.750656","MEAN_MOTION":14.35399967,"ECCENTRICITY":0.0009786,"INCLINATION":98.3911,"RA_OF_ASC_NODE":200.3865,"ARG_OF_PERICENTER":43.4538,"MEAN_ANOMALY":316.7418,"EPHEMERIS_TYPE":0,"CLASSIFICATION_TYPE":"U","NORAD_CAT_ID":39090,"ELEMENT_SET_NO":999,"REV_AT_EPOCH":51595,"BSTAR":0.00015196,"MEAN_MOTION_DOT":3.94e-6,"MEAN_MOTION_DDOT":0},{"OBJECT_NAME":"BRITE-AUSTRIA","OBJECT_ID":"2013-009F","EPOCH":"2023-01-02T19:10:08.188032","MEAN_MOTION":14.35350256,"ECCENTRICITY":0.0011325,"INCLINATION":98.3933,"RA_OF_ASC_NODE":199.8483,"ARG_OF_PERICENTER":48.5334,"MEAN_ANOMALY":311.6822,"EPHEMERIS_TYPE":0,"CLASSIFICATION_TYPE":"U","NORAD_CAT_ID":39091,"ELEMENT_SET_NO":999,"REV_AT_EPOCH":51602,"BSTAR":8.5629e-5,"MEAN_MOTION_DOT":2.03e-6,"MEAN_MOTION_DDOT":0},{"OBJECT_NAME":"SBIRS GEO-2 (USA 241)","OBJECT_ID":"2013-011A","EPOCH":"2023-01-02T20:51:42.915744","MEAN_MOTION":1.00271214,"ECCENTRICITY":0.0002413,"INCLINATION":2.1476,"RA_OF_ASC_NODE":31.6397,"ARG_OF_PERICENTER":243.8821,"MEAN_ANOMALY":101.6361,"EPHEMERIS_TYPE":0,"CLASSIFICATION_TYPE":"U","NORAD_CAT_ID":39120,"ELEMENT_SET_NO":999,"REV_AT_EPOCH":3588,"BSTAR":0,"MEAN_MOTION_DOT":-2.47e-6,"MEAN_MOTION_DDOT":0}]
